[{"OBJECT_NAME":"SDA_1680","OBJECT_ID":"2025-230S","EPOCH":"2026-03-09T23:22:27.829344","MEAN_MOTION":13.85216593,"ECCENTRICITY":0.00048476,"INCLINATION":81.3005,"RA_OF_ASC_NODE":303.6494,"ARG_OF_PERICENTER":103.2201,"MEAN_ANOMALY":256.9497,"EPHEMERIS_TYPE":0,"CLASSIFICATION_TYPE":"U","NORAD_CAT_ID":65990,"ELEMENT_SET_NO":999,"REV_AT_EPOCH":2008,"BSTAR":0.00016774776,"MEAN_MOTION_DOT":2.02e-6,"MEAN_MOTION_DDOT":0},{"OBJECT_NAME":"SL-16 DEB","OBJECT_ID":"1992-093AR","EPOCH":"2026-03-09T10:28:36.644736","MEAN_MOTION":14.0071834,"ECCENTRICITY":0.00784751,"INCLINATION":70.8895,"RA_OF_ASC_NODE":81.6678,"ARG_OF_PERICENTER":279.8607,"MEAN_ANOMALY":192.5369,"EPHEMERIS_TYPE":0,"CLASSIFICATION_TYPE":"U","NORAD_CAT_ID":22352,"ELEMENT_SET_NO":999,"REV_AT_EPOCH":69487,"BSTAR":4.5417046e-5,"MEAN_MOTION_DOT":2.2e-7,"MEAN_MOTION_DDOT":0}]
